{"type": "FeatureCollection", "features": [ {"type": "Feature", "properties": {"norad_id": 39122, "name": "EUTELSAT 117 WEST A", "group": "eutelsat", "lat": 0.005856237400459875, "lon": 13.199850633437475, "alt_km": 35793.171676936756, "timestamp": "2025-12-01T03:58:49.134585+00:00", "meta": {"OBJECT_NAME": "EUTELSAT 117 WEST A", "OBJECT_ID": "2013-012A", "EPOCH": "2025-11-30T15:00:00.381888", "MEAN_MOTION": 1.00271674, "ECCENTRICITY": 0.0002996, "INCLINATION": 0.0287, "RA_OF_ASC_NODE": 41.9131, "ARG_OF_PERICENTER": 207.3948, "MEAN_ANOMALY": 288.6573, "EPHEMERIS_TYPE": 0, "CLASSIFICATION_TYPE": "U", "NORAD_CAT_ID": 39122, "ELEMENT_SET_NO": 999, "REV_AT_EPOCH": 4644, "BSTAR": 0, "MEAN_MOTION_DOT": 9e-08, "MEAN_MOTION_DDOT": 0, "GROUP": "eutelsat"}, "tle": {"line1": "1 39122U 13012A   25334.62500442  .00000009  00000+0  00000+0 0  9991", "line2": "2 39122   0.0287  41.9131 0002996 207.3948 288.6573  1.00271674 46449"}}, "geometry": {"type": "Point", "coordinates": [13.199850633437475, 0.005856237400459875]}}, {"type": "Feature", "properties": {"norad_id": 39163, "name": "EUTELSAT 7B", "group": "eutelsat", "lat": 0.03717021974744353, "lon": 136.9661146939066, "alt_km": 35803.20690724148, "timestamp": "2025-12-01T03:58:49.134599+00:00", "meta": {"OBJECT_NAME": "EUTELSAT 7B", "OBJECT_ID": "2013-022A", "EPOCH": "2025-11-30T17:18:01.691424", "MEAN_MOTION": 1.00271988, "ECCENTRICITY": 0.0004118, "INCLINATION": 0.0677, "RA_OF_ASC_NODE": 353.2554, "ARG_OF_PERICENTER": 318.1711, "MEAN_ANOMALY": 24.9377, "EPHEMERIS_TYPE": 0, "CLASSIFICATION_TYPE": "U", "NORAD_CAT_ID": 39163, "ELEMENT_SET_NO": 999, "REV_AT_EPOCH": 4596, "BSTAR": 0, "MEAN_MOTION_DOT": 7e-07, "MEAN_MOTION_DDOT": 0, "GROUP": "eutelsat"}, "tle": {"line1": "1 39163U 13022A   25334.72085291  .00000070  00000+0  00000+0 0  9996", "line2": "2 39163   0.0677 353.2554 0004118 318.1711  24.9377  1.00271988 45969"}}, "geometry": {"type": "Point", "coordinates": [136.9661146939066, 0.03717021974744353]}}, {"type": "Feature", "properties": {"norad_id": 39612, "name": "EXPRESS-AT1", "group": "eutelsat", "lat": -0.030813114516519, "lon": -174.07309558528445, "alt_km": 35786.07661292933, "timestamp": "2025-12-01T03:58:49.134626+00:00", "meta": {"OBJECT_NAME": "EXPRESS-AT1", "OBJECT_ID": "2014-010A", "EPOCH": "2025-11-29T10:42:54.714240", "MEAN_MOTION": 1.00270814, "ECCENTRICITY": 6.93e-06, "INCLINATION": 0.0171, "RA_OF_ASC_NODE": 305.884, "ARG_OF_PERICENTER": 305.3528, "MEAN_ANOMALY": 34.0533, "EPHEMERIS_TYPE": 0, "CLASSIFICATION_TYPE": "U", "NORAD_CAT_ID": 39612, "ELEMENT_SET_NO": 999, "REV_AT_EPOCH": 4281, "BSTAR": 0, "MEAN_MOTION_DOT": 0, "MEAN_MOTION_DDOT": 0, "GROUP": "eutelsat"}, "tle": {"line1": "1 39612U 14010A   25333.44646660  .00000000  00000+0  00000+0 0  9997", "line2": "2 39612   0.0171 305.8840 0000069 305.3528  34.0533  1.00270814 42817"}}, "geometry": {"type": "Point", "coordinates": [-174.07309558528445, -0.030813114516519]}}, {"type": "Feature", "properties": {"norad_id": 39613, "name": "EXPRESS-AT2", "group": "eutelsat", "lat": -0.025124405612190225, "lon": -90.2255309082124, "alt_km": 35780.34876785498, "timestamp": "2025-12-01T03:58:49.134643+00:00", "meta": {"OBJECT_NAME": "EXPRESS-AT2", "OBJECT_ID": "2014-010B", "EPOCH": "2025-11-30T05:56:52.614816", "MEAN_MOTION": 1.00267137, "ECCENTRICITY": 0.00017469, "INCLINATION": 0.0182, "RA_OF_ASC_NODE": 313.8972, "ARG_OF_PERICENTER": 330.2956, "MEAN_ANOMALY": 14.2422, "EPHEMERIS_TYPE": 0, "CLASSIFICATION_TYPE": "U", "NORAD_CAT_ID": 39613, "ELEMENT_SET_NO": 999, "REV_AT_EPOCH": 4250, "BSTAR": 0, "MEAN_MOTION_DOT": 0, "MEAN_MOTION_DDOT": 0, "GROUP": "eutelsat"}, "tle": {"line1": "1 39613U 14010B   25334.24783119  .00000000  00000+0  00000+0 0  9998", "line2": "2 39613   0.0182 313.8972 0001746 330.2956  14.2422  1.00267137 42507"}}, "geometry": {"type": "Point", "coordinates": [-90.2255309082124, -0.025124405612190225]}}, {"type": "Feature", "properties": {"norad_id": 39773, "name": "EUTELSAT 3B", "group": "eutelsat", "lat": 0.04025455918055143, "lon": 133.0119572670398, "alt_km": 35787.1530138443, "timestamp": "2025-12-01T03:58:49.134659+00:00", "meta": {"OBJECT_NAME": "EUTELSAT 3B", "OBJECT_ID": "2014-030A", "EPOCH": "2025-11-30T17:16:54.299424", "MEAN_MOTION": 1.00270394, "ECCENTRICITY": 0.0004725, "INCLINATION": 0.0627, "RA_OF_ASC_NODE": 354.8733, "ARG_OF_PERICENTER": 230.0166, "MEAN_ANOMALY": 107.2908, "EPHEMERIS_TYPE": 0, "CLASSIFICATION_TYPE": "U", "NORAD_CAT_ID": 39773, "ELEMENT_SET_NO": 999, "REV_AT_EPOCH": 4207, "BSTAR": 0, "MEAN_MOTION_DOT": 4.1e-07, "MEAN_MOTION_DDOT": 0, "GROUP": "eutelsat"}, "tle": {"line1": "1 39773U 14030A   25334.72007291  .00000041  00000+0  00000+0 0  9995", "line2": "2 39773   0.0627 354.8733 0004725 230.0166 107.2908  1.00270394 42071"}}, "geometry": {"type": "Point", "coordinates": [133.0119572670398, 0.04025455918055143]}}, {"type": "Feature", "properties": {"norad_id": 40425, "name": "EUTELSAT 115 WEST B", "group": "eutelsat", "lat": -0.0070235368186633, "lon": 15.057500445719382, "alt_km": 35786.78479196612, "timestamp": "2025-12-01T03:58:49.134688+00:00", "meta": {"OBJECT_NAME": "EUTELSAT 115 WEST B", "OBJECT_ID": "2015-010B", "EPOCH": "2025-11-30T15:00:30.335040", "MEAN_MOTION": 1.00268232, "ECCENTRICITY": 1.89e-05, "INCLINATION": 0.0034, "RA_OF_ASC_NODE": 182.5543, "ARG_OF_PERICENTER": 262.3211, "MEAN_ANOMALY": 95.11, "EPHEMERIS_TYPE": 0, "CLASSIFICATION_TYPE": "U", "NORAD_CAT_ID": 40425, "ELEMENT_SET_NO": 999, "REV_AT_EPOCH": 3940, "BSTAR": 0, "MEAN_MOTION_DOT": -3e-08, "MEAN_MOTION_DDOT": 0, "GROUP": "eutelsat"}, "tle": {"line1": "1 40425U 15010B   25334.62535110 -.00000003  00000+0  00000+0 0  9994", "line2": "2 40425   0.0034 182.5543 0000189 262.3211  95.1100  1.00268232 39403"}}, "geometry": {"type": "Point", "coordinates": [15.057500445719382, -0.0070235368186633]}}, {"type": "Feature", "properties": {"norad_id": 40875, "name": "EUTELSAT 8 WEST B", "group": "eutelsat", "lat": 0.06751634339466744, "lon": 121.9327983223929, "alt_km": 35797.70550785001, "timestamp": "2025-12-01T03:58:49.134707+00:00", "meta": {"OBJECT_NAME": "EUTELSAT 8 WEST B", "OBJECT_ID": "2015-039B", "EPOCH": "2025-11-30T18:56:33.704736", "MEAN_MOTION": 1.00271793, "ECCENTRICITY": 0.0004174, "INCLINATION": 0.0702, "RA_OF_ASC_NODE": 15.0486, "ARG_OF_PERICENTER": 238.1421, "MEAN_ANOMALY": 92.8728, "EPHEMERIS_TYPE": 0, "CLASSIFICATION_TYPE": "U", "NORAD_CAT_ID": 40875, "ELEMENT_SET_NO": 999, "REV_AT_EPOCH": 3766, "BSTAR": 0, "MEAN_MOTION_DOT": -4.4e-07, "MEAN_MOTION_DDOT": 0, "GROUP": "eutelsat"}, "tle": {"line1": "1 40875U 15039B   25334.78927899 -.00000044  00000+0  00000+0 0  9995", "line2": "2 40875   0.0702  15.0486 0004174 238.1421  92.8728  1.00271793 37664"}}, "geometry": {"type": "Point", "coordinates": [121.9327983223929, 0.06751634339466744]}}, {"type": "Feature", "properties": {"norad_id": 41310, "name": "EUTELSAT 9B", "group": "eutelsat", "lat": 0.0457451256163631, "lon": 138.90794772628652, "alt_km": 35797.4468668614, "timestamp": "2025-12-01T03:58:49.134734+00:00", "meta": {"OBJECT_NAME": "EUTELSAT 9B", "OBJECT_ID": "2016-005A", "EPOCH": "2025-11-30T17:18:39.131136", "MEAN_MOTION": 1.00270653, "ECCENTRICITY": 0.0004722, "INCLINATION": 0.0582, "RA_OF_ASC_NODE": 73.8411, "ARG_OF_PERICENTER": 188.9386, "MEAN_ANOMALY": 75.7253, "EPHEMERIS_TYPE": 0, "CLASSIFICATION_TYPE": "U", "NORAD_CAT_ID": 41310, "ELEMENT_SET_NO": 999, "REV_AT_EPOCH": 3612, "BSTAR": 0, "MEAN_MOTION_DOT": 8.3e-07, "MEAN_MOTION_DDOT": 0, "GROUP": "eutelsat"}, "tle": {"line1": "1 41310U 16005A   25334.72128624  .00000083  00000+0  00000+0 0  9999", "line2": "2 41310   0.0582  73.8411 0004722 188.9386  75.7253  1.00270653 36123"}}, "geometry": {"type": "Point", "coordinates": [138.90794772628652, 0.0457451256163631]}}, {"type": "Feature", "properties": {"norad_id": 41382, "name": "EUTELSAT 65 WEST A", "group": "eutelsat", "lat": 0.04821553594175923, "lon": 64.77187771700032, "alt_km": 35797.00768871614, "timestamp": "2025-12-01T03:58:49.134748+00:00", "meta": {"OBJECT_NAME": "EUTELSAT 65 WEST A", "OBJECT_ID": "2016-014A", "EPOCH": "2025-11-30T18:40:12.770976", "MEAN_MOTION": 1.00272097, "ECCENTRICITY": 0.0002632, "INCLINATION": 0.0685, "RA_OF_ASC_NODE": 37.8203, "ARG_OF_PERICENTER": 217.028, "MEAN_ANOMALY": 29.9142, "EPHEMERIS_TYPE": 0, "CLASSIFICATION_TYPE": "U", "NORAD_CAT_ID": 41382, "ELEMENT_SET_NO": 999, "REV_AT_EPOCH": 3554, "BSTAR": 0, "MEAN_MOTION_DOT": -2.55e-06, "MEAN_MOTION_DDOT": 0, "GROUP": "eutelsat"}, "tle": {"line1": "1 41382U 16014A   25334.77792559 -.00000255  00000+0  00000+0 0  9999", "line2": "2 41382   0.0685  37.8203 0002632 217.0280  29.9142  1.00272097 35547"}}, "geometry": {"type": "Point", "coordinates": [64.77187771700032, 0.04821553594175923]}}, {"type": "Feature", "properties": {"norad_id": 42741, "name": "EUTELSAT 172B", "group": "eutelsat", "lat": 0.003029023604174092, "lon": -58.03614819701604, "alt_km": 35786.49579841813, "timestamp": "2025-12-01T03:58:49.134783+00:00", "meta": {"OBJECT_NAME": "EUTELSAT 172B", "OBJECT_ID": "2017-029B", "EPOCH": "2025-11-30T18:05:12.171840", "MEAN_MOTION": 1.00270557, "ECCENTRICITY": 1.27e-05, "INCLINATION": 0.0107, "RA_OF_ASC_NODE": 213.1428, "ARG_OF_PERICENTER": 349.2917, "MEAN_ANOMALY": 310.7495, "EPHEMERIS_TYPE": 0, "CLASSIFICATION_TYPE": "U", "NORAD_CAT_ID": 42741, "ELEMENT_SET_NO": 999, "REV_AT_EPOCH": 3174, "BSTAR": 0, "MEAN_MOTION_DOT": 1.6e-07, "MEAN_MOTION_DDOT": 0, "GROUP": "eutelsat"}, "tle": {"line1": "1 42741U 17029B   25334.75361310  .00000016  00000+0  00000+0 0  9995", "line2": "2 42741   0.0107 213.1428 0000127 349.2917 310.7495  1.00270557 31745"}}, "geometry": {"type": "Point", "coordinates": [-58.03614819701604, 0.003029023604174092]}}]}